[{"OBJECT_NAME":"CS1","OBJECT_ID":"2021-088B","EPOCH":"2026-03-09T18:02:30.253920","MEAN_MOTION":15.31848439,"ECCENTRICITY":0.00141292,"INCLINATION":97.3882,"RA_OF_ASC_NODE":132.1684,"ARG_OF_PERICENTER":78.0335,"MEAN_ANOMALY":282.249,"EPHEMERIS_TYPE":0,"CLASSIFICATION_TYPE":"U","NORAD_CAT_ID":49261,"ELEMENT_SET_NO":999,"REV_AT_EPOCH":24518,"BSTAR":0.00051175576,"MEAN_MOTION_DOT":0.00015722,"MEAN_MOTION_DDOT":0},{"OBJECT_NAME":"STARLINK-34765","OBJECT_ID":"2025-263X","EPOCH":"2026-03-09T03:10:50.321568","MEAN_MOTION":15.27565968,"ECCENTRICITY":0.00015578,"INCLINATION":43.0007,"RA_OF_ASC_NODE":353.8452,"ARG_OF_PERICENTER":282.6332,"MEAN_ANOMALY":77.4345,"EPHEMERIS_TYPE":0,"CLASSIFICATION_TYPE":"U","NORAD_CAT_ID":66506,"ELEMENT_SET_NO":999,"REV_AT_EPOCH":1881,"BSTAR":0.0013939598,"MEAN_MOTION_DOT":0.0003828,"MEAN_MOTION_DDOT":0}]
