CS1                     
1 49261U 21088B   26068.75173904  .00015722  00000+0  51176-3 0  9998
2 49261  97.3882 132.1684 0014129  78.0335 282.2490 15.31848439245182
STARLINK-34765          
1 66506U 25263X   26068.13252687  .00038280  00000+0  13940-2 0  9996
2 66506  43.0007 353.8452 0001557 282.6332  77.4345 15.27565968 18815
